QZS-1R                  
1 49336U 21096A   23335.20566149 -.00000254  00000+0  00000+0 0  9992
2 49336  35.5380  93.5713 0751983 270.8620 274.0359  1.00262875  7689
